{"type":"FeatureCollection","properties":{"source":"https://github.com/isellsoap/deutschlandGeoJSON","name":"Nordrhein-Westfalen","id":"DE-NW","license":"Open Data"},"features":[{"type":"Feature","properties":{"id":"DE-NW","name":"Nordrhein-Westfalen","type":"State"},"geometry":{"type":"Polygon","coordinates":[[[8.66628,52.52528],[8.67277,52.51795],[8.68476,52.52189],[8.69105,52.51828],[8.68495,52.51817],[8.68515,52.51445],[8.69754,52.51094],[8.70401,52.5036],[8.69792,52.50348],[8.7042,52.49988],[8.69869,52.48859],[8.71146,52.47764],[8.71243,52.45901],[8.70635,52.4589],[8.70732,52.44028],[8.71987,52.43304],[8.72026,52.42558],[8.7081,52.42537],[8.70965,52.39557],[8.71592,52.39194],[8.72749,52.40333],[8.74042,52.38864],[8.78847,52.40065],[8.85589,52.3906],[8.8557,52.39433],[8.86767,52.39826],[8.89216,52.39494],[8.89179,52.4024],[8.89769,52.40623],[8.94042,52.40321],[8.93416,52.40684],[8.96401,52.41853],[8.96365,52.42599],[8.97563,52.42992],[8.98189,52.42629],[8.98761,52.43385],[8.98117,52.4412],[8.98725,52.44132],[8.9869,52.44876],[8.98064,52.45239],[9.01087,52.45663],[9.01678,52.46046],[9.02198,52.4792],[9.04615,52.48334],[9.04562,52.49453],[9.05137,52.50209],[9.08823,52.49524],[9.09415,52.49907],[9.11292,52.48818],[9.13135,52.48475],[9.13778,52.47739],[9.12561,52.47719],[9.12595,52.46973],[9.10212,52.45814],[9.09673,52.44312],[9.11549,52.43223],[9.11566,52.42851],[9.1035,52.42831],[9.10992,52.42095],[9.12191,52.42488],[9.1285,52.4138],[9.1172,52.39494],[9.09931,52.38719],[9.10001,52.37227],[9.08803,52.36834],[9.08855,52.35716],[9.05872,52.34547],[9.05907,52.33802],[9.02835,52.34498],[9.02871,52.33752],[8.9989,52.32585],[8.99926,52.31838],[8.98748,52.31073],[8.99373,52.3071],[8.98287,52.28081],[8.96467,52.28051],[8.97111,52.27316],[8.97717,52.27326],[8.97166,52.26198],[9.00822,52.25885],[9.00859,52.25139],[9.02677,52.25169],[9.0578,52.23727],[9.07616,52.23384],[9.07045,52.22628],[9.05264,52.21854],[9.04622,52.22589],[9.04034,52.22207],[9.04676,52.21471],[9.04785,52.19235],[9.04198,52.18853],[9.04839,52.18117],[9.04216,52.1848],[9.02418,52.18078],[9.01794,52.18441],[9.02363,52.19196],[9.01739,52.19559],[9.0117,52.18804],[8.99941,52.19157],[8.99922,52.19529],[8.98711,52.1951],[8.99354,52.18774],[9.01207,52.18059],[9.01868,52.1695],[9.013,52.16195],[9.01942,52.1546],[9.01431,52.13587],[9.02054,52.13224],[9.03831,52.13999],[9.04454,52.13636],[9.04417,52.14381],[9.07423,52.14802],[9.08687,52.13703],[9.11141,52.12996],[9.12314,52.1376],[9.1475,52.13426],[9.16011,52.12327],[9.16063,52.11208],[9.14855,52.1119],[9.13684,52.10425],[9.13736,52.09307],[9.14908,52.10072],[9.14926,52.09699],[9.1553,52.09708],[9.15565,52.08963],[9.17997,52.08628],[9.19273,52.07156],[9.1929,52.06782],[9.17516,52.0601],[9.17604,52.04146],[9.18207,52.04156],[9.1764,52.03401],[9.19482,52.02683],[9.20172,52.00829],[9.18968,52.00811],[9.18403,52.00057],[9.20225,51.99711],[9.1904,51.99321],[9.18457,51.98939],[9.18494,51.98194],[9.17892,51.98185],[9.1915,51.97086],[9.19186,51.9634],[9.21008,51.95995],[9.22154,51.9713],[9.23355,51.97148],[9.23338,51.97521],[9.24539,51.97539],[9.24556,51.97166],[9.26942,51.97575],[9.28177,51.96847],[9.27576,51.96837],[9.27593,51.96466],[9.28844,51.95365],[9.27644,51.95348],[9.2708,51.94594],[9.26479,51.94585],[9.28295,51.94239],[9.28313,51.93866],[9.27713,51.93857],[9.27766,51.92739],[9.29615,51.91648],[9.30196,51.92029],[9.33205,51.917],[9.35098,51.89489],[9.35132,51.88744],[9.34536,51.88735],[9.3459,51.87618],[9.33994,51.87609],[9.34608,51.87245],[9.34052,51.86492],[9.34115,51.85374],[9.35857,51.86145],[9.40652,51.85465],[9.44211,51.85514],[9.44788,51.85895],[9.46592,51.85547],[9.46028,51.84799],[9.44847,51.84779],[9.4371,51.84022],[9.44408,51.8219],[9.43259,51.818],[9.43317,51.80696],[9.44489,51.80351],[9.43944,51.79604],[9.45116,51.79259],[9.41733,51.77352],[9.41205,51.76237],[9.40083,51.75479],[9.40064,51.75847],[9.389,51.75824],[9.38957,51.74719],[9.38394,51.74342],[9.38431,51.73605],[9.40195,51.72905],[9.39091,51.71779],[9.39667,51.7179],[9.39698,51.71054],[9.40898,51.69975],[9.39201,51.69204],[9.39232,51.68469],[9.39808,51.6848],[9.40431,51.67389],[9.38735,51.66619],[9.38237,51.64769],[9.42285,51.64482],[9.44564,51.65262],[9.45174,51.64538],[9.43502,51.63034],[9.37756,51.62551],[9.37787,51.61815],[9.3662,51.62159],[9.34347,51.61376],[9.36728,51.59581],[9.37896,51.59236],[9.3735,51.58487],[9.36214,51.58095],[9.35684,51.56976],[9.34547,51.56583],[9.34577,51.55845],[9.32865,51.5544],[9.3291,51.54332],[9.31803,51.53198],[9.3238,51.53211],[9.31878,51.51349],[9.28422,51.51278],[9.2733,51.49774],[9.25602,51.49739],[9.23904,51.48963],[9.22869,51.45973],[9.1996,51.46658],[9.18822,51.46264],[9.17735,51.44384],[9.16017,51.43979],[9.15402,51.45082],[9.13118,51.44294],[9.11386,51.4426],[9.10208,51.44982],[9.10173,51.46098],[9.09596,51.46087],[9.09584,51.46458],[9.11238,51.4872],[9.1121,51.49462],[9.1062,51.49822],[9.06001,51.50109],[9.0423,51.5119],[9.04188,51.5193],[8.99083,51.5036],[8.99054,51.50729],[8.92433,51.48741],[8.91246,51.47972],[8.913,51.46852],[8.9378,51.45778],[8.93198,51.4502],[8.94428,51.44297],[8.93867,51.42793],[8.96855,51.42854],[8.97334,51.41278],[8.96301,51.40977],[8.96335,51.39485],[8.95758,51.38727],[8.90369,51.38991],[8.87408,51.3744],[8.85569,51.38152],[8.85555,51.38525],[8.84345,51.38502],[8.84328,51.38875],[8.78884,51.38397],[8.75897,51.3722],[8.70376,51.37489],[8.69172,51.37092],[8.69857,51.35984],[8.66864,51.34805],[8.66937,51.33684],[8.65072,51.34023],[8.63252,51.33612],[8.6333,51.32492],[8.61509,51.32082],[8.61562,51.31336],[8.60409,51.30191],[8.59793,51.30179],[8.59845,51.29433],[8.58666,51.28662],[8.57436,51.28638],[8.569,51.27507],[8.58796,51.26796],[8.60168,51.24581],[8.62627,51.24256],[8.64362,51.25785],[8.6977,51.26639],[8.70939,51.27409],[8.70958,51.27036],[8.72146,51.27432],[8.7397,51.27094],[8.74004,51.26347],[8.75221,51.25998],[8.7407,51.24854],[8.74686,51.24493],[8.76008,51.2153],[8.78438,51.20458],[8.76679,51.19676],[8.76779,51.17063],[8.72702,51.14741],[8.70979,51.13213],[8.71648,51.11359],[8.73428,51.11394],[8.73457,51.10649],[8.72285,51.10252],[8.70491,51.10589],[8.66992,51.09025],[8.60995,51.10025],[8.56203,51.09929],[8.55645,51.09171],[8.53815,51.09512],[8.51515,51.07605],[8.54038,51.05776],[8.51747,51.03866],[8.5237,51.03502],[8.53546,51.03898],[8.54225,51.02418],[8.55468,51.01323],[8.53708,51.00913],[8.50833,50.98987],[8.48575,50.96701],[8.47973,50.96699],[8.48,50.96326],[8.46797,50.96326],[8.47532,50.94474],[8.46371,50.94097],[8.47149,50.91152],[8.44769,50.91496],[8.44227,50.90753],[8.41904,50.89997],[8.41932,50.89627],[8.40199,50.88875],[8.40287,50.87763],[8.37959,50.87008],[8.38051,50.85895],[8.36857,50.85889],[8.36825,50.8626],[8.3203,50.85879],[8.29987,50.88123],[8.27567,50.88124],[8.26993,50.87751],[8.27054,50.87006],[8.253,50.86262],[8.21882,50.83657],[8.20675,50.83655],[8.18954,50.82538],[8.17887,50.80679],[8.14391,50.79187],[8.13191,50.79185],[8.13868,50.78072],[8.1512,50.77332],[8.1452,50.77331],[8.14546,50.7696],[8.16385,50.76589],[8.15833,50.75846],[8.16456,50.75842],[8.16535,50.75093],[8.17942,50.73952],[8.15312,50.69479],[8.1392,50.69886],[8.1329,50.69526],[8.13396,50.68771],[8.1274,50.68779],[8.12109,50.70223],[8.09316,50.70444],[8.09276,50.70817],[8.0708,50.69606],[8.05282,50.69913],[8.0497,50.72892],[8.02431,50.74667],[8.01843,50.74645],[8.01142,50.75739],[7.99341,50.76046],[7.97432,50.77467],[7.97329,50.7858],[7.97918,50.78602],[7.97195,50.80063],[7.98339,50.80477],[7.98241,50.81588],[7.97652,50.81567],[7.98208,50.81959],[7.97397,50.84525],[7.96775,50.84874],[7.93234,50.84749],[7.92675,50.84358],[7.91462,50.84686],[7.88844,50.87562],[7.83457,50.88115],[7.83331,50.89595],[7.83922,50.89616],[7.83828,50.90726],[7.85449,50.92636],[7.83049,50.92924],[7.81772,50.93993],[7.79963,50.94302],[7.7881,50.93891],[7.78312,50.9276],[7.73638,50.91852],[7.73669,50.91481],[7.74885,50.91153],[7.74949,50.90413],[7.76164,50.90084],[7.76228,50.89344],[7.75636,50.89322],[7.75668,50.88952],[7.76356,50.87862],[7.75269,50.86708],[7.75925,50.85989],[7.77141,50.85661],[7.75431,50.84856],[7.76646,50.84528],[7.76087,50.84136],[7.73656,50.84791],[7.73624,50.85163],[7.71947,50.83987],[7.72012,50.83246],[7.70304,50.8244],[7.68005,50.81613],[7.66199,50.81918],[7.68662,50.80893],[7.68071,50.80872],[7.68828,50.79041],[7.68271,50.78648],[7.68338,50.77906],[7.66498,50.78582],[7.66632,50.77099],[7.66075,50.76706],[7.62531,50.76575],[7.62497,50.76945],[7.60168,50.76486],[7.59678,50.75352],[7.5981,50.73869],[7.58662,50.73454],[7.55612,50.74453],[7.52762,50.7323],[7.52729,50.73601],[7.52205,50.72837],[7.52827,50.72489],[7.50436,50.7277],[7.49912,50.72006],[7.48177,50.71567],[7.44644,50.71431],[7.44121,50.70667],[7.42355,50.70598],[7.41702,50.71317],[7.40525,50.71271],[7.40558,50.709],[7.38173,50.71179],[7.3814,50.7155],[7.35986,50.69233],[7.37161,50.69279],[7.37259,50.68167],[7.37879,50.67819],[7.37911,50.67448],[7.37324,50.67425],[7.37389,50.66684],[7.36246,50.66267],[7.36408,50.64413],[7.35233,50.64367],[7.34123,50.63579],[7.32916,50.63903],[7.31774,50.63485],[7.31807,50.63114],[7.31188,50.63462],[7.28939,50.62255],[7.2604,50.61767],[7.24217,50.62438],[7.21907,50.61973],[7.2168,50.64571],[7.21094,50.64548],[7.19956,50.64131],[7.19566,50.61879],[7.18395,50.61832],[7.17843,50.61437],[7.17908,50.60693],[7.1612,50.60995],[7.15081,50.59462],[7.12645,50.60483],[7.11478,50.60437],[7.11054,50.58555],[7.09336,50.58113],[7.07551,50.58416],[7.06869,50.59511],[7.05668,50.59838],[7.00745,50.55913],[6.98997,50.55849],[6.97897,50.5506],[6.96147,50.55],[6.95497,50.55727],[6.932,50.55275],[6.92652,50.54882],[6.93437,50.52661],[6.91178,50.51836],[6.90529,50.52564],[6.88818,50.52133],[6.88886,50.51385],[6.90084,50.5105],[6.8957,50.50282],[6.91382,50.49595],[6.91415,50.49221],[6.90288,50.48808],[6.91004,50.47334],[6.90457,50.46941],[6.90525,50.46194],[6.88239,50.45739],[6.87727,50.44971],[6.86566,50.4493],[6.86601,50.44555],[6.81741,50.46645],[6.804,50.4848],[6.77557,50.4764],[6.76461,50.46854],[6.75292,50.4682],[6.74779,50.46052],[6.76496,50.46479],[6.76608,50.45351],[6.7719,50.4537],[6.77231,50.44992],[6.76649,50.44972],[6.77318,50.44229],[6.75109,50.43358],[6.75157,50.42974],[6.77028,50.42247],[6.76976,50.42635],[6.77543,50.42666],[6.77709,50.41496],[6.79456,50.41205],[6.78895,50.4117],[6.79122,50.39605],[6.7855,50.39577],[6.78113,50.38399],[6.79543,50.36497],[6.81378,50.35794],[6.80926,50.34981],[6.79109,50.34976],[6.7907,50.35351],[6.72563,50.33831],[6.70685,50.32978],[6.69442,50.3492],[6.6749,50.36391],[6.66327,50.36003],[6.66437,50.34885],[6.64144,50.33737],[6.62838,50.34833],[6.63254,50.36706],[6.60822,50.37041],[6.60709,50.38162],[6.58953,50.37756],[6.56111,50.36209],[6.53089,50.36522],[6.51371,50.35745],[6.52037,50.35015],[6.50808,50.35362],[6.50246,50.3498],[6.50877,50.34621],[6.49121,50.34215],[6.48592,50.33466],[6.46768,50.33798],[6.45011,50.33393],[6.46138,50.34154],[6.45541,50.34142],[6.45967,50.36002],[6.44776,50.35976],[6.44707,50.36717],[6.42358,50.36293],[6.42324,50.36663],[6.41729,50.3665],[6.4229,50.37034],[6.41695,50.3702],[6.4166,50.3739],[6.42221,50.37774],[6.41554,50.385],[6.39172,50.38443],[6.38017,50.38045],[6.38649,50.3769],[6.39414,50.35857],[6.40571,50.36253],[6.39447,50.3549],[6.41464,50.32951],[6.4206,50.32963],[6.42125,50.32228],[6.40334,50.32193],[6.40834,50.33307],[6.39609,50.3365],[6.39544,50.34385],[6.37738,50.35083],[6.36369,50.36527],[6.33976,50.37989],[6.34048,50.39069],[6.36207,50.40473],[6.36226,50.42075],[6.37467,50.44595],[6.37287,50.45066],[6.34246,50.46431],[6.33003,50.49364],[6.3151,50.50264],[6.2989,50.49778],[6.26484,50.50269],[6.25951,50.49507],[6.25344,50.49483],[6.24673,50.50091],[6.22385,50.50228],[6.21035,50.51704],[6.18083,50.53306],[6.17219,50.55051],[6.1795,50.56251],[6.19746,50.56698],[6.19675,50.5744],[6.22007,50.58709],[6.23265,50.58331],[6.24172,50.59351],[6.25157,50.5921],[6.27838,50.6164],[6.25934,50.6254],[6.22892,50.62421],[6.20995,50.63092],[6.19757,50.63116],[6.17309,50.62143],[6.16809,50.63696],[6.15966,50.64373],[6.16583,50.64401],[6.16612,50.64027],[6.17805,50.64453],[6.16949,50.65266],[6.17379,50.65841],[6.11873,50.70874],[6.10073,50.71863],[6.06033,50.71767],[6.02862,50.72522],[6.01162,50.75689],[6.00713,50.75663],[6.00622,50.76741],[6.01247,50.76775],[6.01188,50.77525],[5.99937,50.77456],[5.99908,50.77831],[5.9632,50.79505],[5.96104,50.80245],[5.97528,50.81409],[5.99974,50.80281],[6.0271,50.81477],[6.03108,50.82139],[6.01968,50.84523],[6.0631,50.85157],[6.07384,50.84686],[6.07875,50.86348],[6.08993,50.8745],[6.07565,50.89508],[6.08294,50.9218],[6.05851,50.92054],[6.04568,50.93113],[6.0398,50.92705],[6.03959,50.9308],[6.01517,50.93316],[6.00853,50.94775],[6.01435,50.95186],[6.00231,50.95485],[6.00217,50.95859],[6.02791,50.97506],[6.03236,50.97997],[6.03,50.98336],[5.98259,50.98807],[5.9669,50.98313],[5.95008,50.99216],[5.90369,50.97827],[5.89971,50.98144],[5.90825,50.99346],[5.90796,51.00095],[5.89636,51.00389],[5.89615,51.01136],[5.88046,51.02578],[5.88227,51.03234],[5.87206,51.04341],[5.87162,51.05083],[5.89512,51.04869],[5.90305,51.05451],[5.92476,51.05594],[5.94555,51.03465],[5.95931,51.03802],[5.96954,51.03447],[5.96649,51.04224],[5.97342,51.04314],[5.98233,51.05341],[5.97835,51.06316],[5.98898,51.0651],[5.9895,51.07221],[6.01527,51.09405],[6.03874,51.09565],[6.07453,51.12045],[6.08448,51.12115],[6.10696,51.14133],[6.12471,51.14256],[6.13021,51.1504],[6.1718,51.15293],[6.17852,51.1619],[6.14478,51.17372],[6.19314,51.19166],[6.1683,51.19766],[6.14557,51.19044],[6.12209,51.17582],[6.09183,51.17529],[6.07831,51.18747],[6.07363,51.22407],[6.09169,51.22537],[6.07819,51.24471],[6.11784,51.2699],[6.12814,51.28624],[6.15454,51.30357],[6.16525,51.31522],[6.17457,51.33778],[6.19886,51.3389],[6.1984,51.34256],[6.23197,51.36598],[6.22273,51.39145],[6.2335,51.40292],[6.2209,51.40613],[6.21528,51.40222],[6.21435,51.40956],[6.22286,51.43942],[6.22149,51.45044],[6.22759,51.45068],[6.2259,51.46425],[6.23141,51.4693],[6.21983,51.49256],[6.22036,51.50917],[6.19519,51.53478],[6.17926,51.5409],[6.15687,51.56924],[6.13008,51.58236],[6.12241,51.59293],[6.09096,51.60522],[6.09503,51.62029],[6.10562,51.62265],[6.11399,51.64937],[6.12114,51.65363],[6.11877,51.66046],[6.10181,51.66058],[6.03901,51.67773],[6.03434,51.6892],[6.03442,51.71091],[6.05058,51.71677],[6.03776,51.72223],[6.03654,51.72748],[6.01286,51.7358],[5.96953,51.73787],[5.96932,51.74164],[5.96401,51.74161],[5.9687,51.75293],[5.98417,51.76054],[5.98964,51.7568],[5.98944,51.76057],[6.00478,51.76817],[5.99412,51.77189],[5.99374,51.77942],[6.00071,51.782],[5.99014,51.7963],[5.99275,51.79824],[5.9653,51.81312],[5.96508,51.81688],[5.97579,51.81696],[5.96465,51.82441],[5.97212,51.83186],[6.00121,51.82851],[6.01737,51.83226],[6.03298,51.8429],[6.05378,51.8465],[6.06825,51.8649],[6.11006,51.84696],[6.16898,51.84503],[6.167,51.85861],[6.14459,51.87052],[6.13829,51.88493],[6.10715,51.88899],[6.11811,51.89886],[6.15889,51.90538],[6.18054,51.89806],[6.2018,51.88423],[6.20131,51.87918],[6.21311,51.86876],[6.28898,51.87658],[6.30499,51.87069],[6.31053,51.85099],[6.35292,51.8545],[6.3751,51.83643],[6.38706,51.84055],[6.41747,51.82563],[6.41054,51.83594],[6.41783,51.83767],[6.41749,51.84143],[6.41112,51.84501],[6.41047,51.85367],[6.39909,51.86],[6.39732,51.87136],[6.4023,51.8748],[6.43275,51.87195],[6.43311,51.86821],[6.4391,51.86837],[6.43983,51.86088],[6.46309,51.86901],[6.47008,51.85911],[6.48034,51.85462],[6.50179,51.85898],[6.55333,51.88271],[6.5683,51.88317],[6.58673,51.89477],[6.58711,51.89104],[6.63995,51.90371],[6.69244,51.92016],[6.70482,51.91675],[6.70699,51.90931],[6.73071,51.89871],[6.7311,51.89497],[6.74271,51.89905],[6.75082,51.90678],[6.75997,51.90704],[6.76522,51.9147],[6.77722,51.91504],[6.79935,51.93444],[6.80536,51.93461],[6.80872,51.96098],[6.83838,51.9656],[6.83536,51.99553],[6.81733,51.99499],[6.75945,52.03074],[6.72223,52.04084],[6.69818,52.04012],[6.69624,52.05873],[6.70711,52.07027],[6.70109,52.07008],[6.70069,52.07379],[6.74282,52.07512],[6.75972,52.08686],[6.75255,52.09785],[6.76459,52.09823],[6.76845,52.12077],[6.85296,52.11975],[6.87629,52.128],[6.88529,52.14065],[6.88659,52.1568],[6.91434,52.17047],[6.91636,52.17802],[6.93769,52.17875],[6.96889,52.19045],[6.98221,52.21779],[6.99579,52.22877],[7.02325,52.23051],[7.0236,52.22677],[7.02961,52.22697],[7.06489,52.23576],[7.07106,52.24348],[7.10657,52.24444],[7.11232,52.24832],[7.11172,52.2558],[7.12321,52.26356],[7.1592,52.26817],[7.29864,52.2642],[7.32148,52.27975],[7.36301,52.28833],[7.39124,52.31149],[7.39155,52.30777],[7.40358,52.3081],[7.40327,52.31182],[7.42704,52.31621],[7.44357,52.33532],[7.485,52.34761],[7.48474,52.35132],[7.53207,52.37111],[7.55657,52.36806],[7.57421,52.37961],[7.5744,52.37594],[7.58656,52.37625],[7.58011,52.38346],[7.58522,52.40568],[7.60936,52.41364],[7.6091,52.42097],[7.57815,52.43119],[7.58379,52.44598],[7.61334,52.47604],[7.61345,52.47238],[7.63791,52.46938],[7.67485,52.45576],[7.69301,52.45629],[7.71936,52.40199],[7.81134,52.37172],[7.8416,52.36902],[7.89512,52.38192],[7.91345,52.37521],[7.91978,52.36808],[7.93194,52.36483],[7.93777,52.36873],[7.94427,52.35791],[7.93863,52.35032],[7.9506,52.35078],[7.94531,52.33582],[7.9513,52.33603],[7.97629,52.31487],[7.98841,52.31166],[7.98865,52.30792],[7.94651,52.30999],[7.92868,52.30561],[7.92955,52.2907],[7.95477,52.27652],[7.94329,52.26858],[7.93124,52.26817],[7.9255,52.2642],[7.92606,52.25667],[7.92004,52.25647],[7.92663,52.24913],[7.92834,52.2265],[7.91061,52.22218],[7.91661,52.22236],[7.91119,52.21463],[7.9049,52.21822],[7.89949,52.2105],[7.90009,52.20296],[7.90608,52.20314],[7.90638,52.19936],[7.90039,52.19919],[7.91359,52.18443],[7.93216,52.17737],[7.95613,52.17802],[7.97471,52.17095],[7.98072,52.17112],[7.98044,52.17491],[8.01104,52.17615],[8.02509,52.16201],[7.99997,52.15655],[8.0092,52.11517],[7.96763,52.11443],[7.94495,52.09897],[7.88576,52.08618],[7.91188,52.06074],[7.9242,52.05735],[7.91876,52.04972],[7.98613,52.03675],[7.99708,52.052],[8.01502,52.05637],[8.03253,52.06829],[8.03873,52.0686],[8.039,52.06489],[8.05779,52.0659],[8.05759,52.06964],[8.09705,52.06864],[8.10387,52.06152],[8.13151,52.07305],[8.16022,52.0771],[8.19601,52.07391],[8.20084,52.08885],[8.21198,52.10017],[8.2352,52.11171],[8.24646,52.12306],[8.26453,52.12336],[8.26981,52.13461],[8.28212,52.1311],[8.28791,52.13492],[8.28815,52.1312],[8.313,52.12045],[8.31903,52.12055],[8.32459,52.12809],[8.37381,52.11403],[8.37404,52.11031],[8.40423,52.11082],[8.41004,52.11464],[8.40307,52.12941],[8.41446,52.14077],[8.43236,52.14481],[8.44982,52.15627],[8.48588,52.16061],[8.50877,52.18335],[8.52067,52.18728],[8.4718,52.1939],[8.45297,52.20475],[8.45254,52.2122],[8.44648,52.21209],[8.45166,52.22708],[8.46356,52.23101],[8.45727,52.23463],[8.46269,52.24591],[8.46875,52.24601],[8.46832,52.25345],[8.46204,52.25707],[8.46746,52.26834],[8.46054,52.28313],[8.45948,52.30174],[8.47076,52.31684],[8.46469,52.31674],[8.4517,52.33141],[8.4437,52.36478],[8.40029,52.37889],[8.39378,52.38622],[8.31339,52.40704],[8.31317,52.41076],[8.31925,52.41087],[8.3188,52.41829],[8.32489,52.41841],[8.32424,52.42954],[8.30559,52.4366],[8.29826,52.45871],[8.30412,52.46254],[8.31668,52.45537],[8.34706,52.45598],[8.35984,52.44509],[8.38417,52.44556],[8.40199,52.45333],[8.43265,52.4502],[8.45636,52.4618],[8.46159,52.47678],[8.46073,52.49165],[8.47249,52.49932],[8.48468,52.49956],[8.50822,52.51489],[8.5578,52.50093],[8.65369,52.53251],[8.66628,52.52528]]]}}]}